NORAD_CAT_ID,OBJECT_NAME,OBJECT_TYPE,EPOCH,MEAN_MOTION,ECCENTRICITY,INCLINATION,RA_OF_ASC_NODE,ARG_OF_PERICENTER,MEAN_ANOMALY,BSTAR,MEAN_MOTION_DOT,MEAN_MOTION_DDOT,TLE_LINE0,TLE_LINE1,TLE_LINE2,SEMIMAJOR_AXIS,PERIOD,APOGEE,PERIGEE,DECAYED
53263.0,STARLINK-4130,PAYLOAD,2022-11-16 23:35:20,15.08840548,0.0001754,53.217,220.2006,53.1511,306.9642,1.0991e-06,-2.71e-06,0.0,0 STARLINK-4130,1 53263U 22086X   22320.98287812 -.00000271  00000-0  10991-5 0  9997,2 53263  53.2170 220.2006 0001754  53.1511 306.9642 15.08840548 18411,6917.879,95.438,540.957,538.53,0.0
53263.0,STARLINK-4130,PAYLOAD,2022-11-17 12:18:25,15.08848904,0.0001931,53.2161,217.8223,55.8184,304.2991,0.00034061,5.138e-05,0.0,0 STARLINK-4130,1 53263U 22086X   22321.51279630  .00005138  00000-0  34061-3 0  9994,2 53263  53.2161 217.8223 0001931  55.8184 304.2991 15.08848904 18676,6917.853,95.437,541.054,538.382,0.0
53263.0,STARLINK-4130,PAYLOAD,2022-11-17 20:15:21,15.08840988,0.0001822,53.217,216.3351,54.8065,305.3097,0.00018835,2.711e-05,0.0,0 STARLINK-4130,1 53263U 22086X   22321.84399796  .00002711  00000-0  18835-3 0  9991,2 53263  53.2170 216.3351 0001822  54.8065 305.3097 15.08840988 18727,6917.877,95.437,541.003,538.482,0.0
53263.0,STARLINK-4130,PAYLOAD,2022-11-18 02:36:53,15.0884617,0.0001959,53.2168,215.1456,55.7611,304.3566,0.00022536,3.301e-05,0.0,0 STARLINK-4130,1 53263U 22086X   22322.10895502  .00003301  00000-0  22536-3 0  9996,2 53263  53.2168 215.1456 0001959  55.7611 304.3566 15.08846170 18588,6917.861999999999,95.437,541.082,538.371,0.0
53263.0,STARLINK-4130,PAYLOAD,2022-11-18 12:09:12,15.08854805,0.0001783,53.2161,213.3616,62.2152,297.902,0.00040513,6.168e-05,0.0,0 STARLINK-4130,1 53263U 22086X   22322.50639297  .00006168  00000-0  40513-3 0  9996,2 53263  53.2161 213.3616 0001783  62.2152 297.9020 15.08854805 18820,6917.835,95.437,540.934,538.467,0.0
53263.0,STARLINK-4130,PAYLOAD,2022-11-18 18:30:44,15.08850333,0.000173,53.216,212.1719,65.7429,294.3744,0.00023227,3.411e-05,0.0,0 STARLINK-4130,1 53263U 22086X   22322.77135342  .00003411  00000-0  23227-3 0  9998,2 53263  53.2160 212.1719 0001730  65.7429 294.3744 15.08850333 18867,6917.849,95.437,540.911,538.5169999999998,0.0
53263.0,STARLINK-4130,PAYLOAD,2022-11-19 02:27:40,15.08845855,0.0001727,53.2165,210.6852,43.6361,316.4767,0.00012281,1.667e-05,0.0,0 STARLINK-4130,1 53263U 22086X   22323.10255378  .00001667  00000-0  12281-3 0  9997,2 53263  53.2165 210.6852 0001727  43.6361 316.4767 15.08845855 18739,6917.861999999999,95.437,540.922,538.533,0.0
53263.0,STARLINK-4130,PAYLOAD,2022-11-19 19:56:54,15.0884624,0.0001809,53.2168,207.413,65.5907,294.5274,0.0001171,1.576e-05,0.0,0 STARLINK-4130,1 53263U 22086X   22323.83119181  .00001576  00000-0  11710-3 0  9993,2 53263  53.2168 207.4130 0001809  65.5907 294.5274 15.08846240 19026,6917.861,95.437,540.9780000000002,538.475,0.0
53263.0,STARLINK-4130,PAYLOAD,2022-11-20 02:18:27,15.088425099999998,0.0001668,53.2168,206.2238,68.8762,291.2408,6.597100000000001e-05,7.62e-06,0.0,0 STARLINK-4130,1 53263U 22086X   22324.09615220  .00000762  00000-0  65971-4 0  9992,2 53263  53.2168 206.2238 0001668  68.8762 291.2408 15.08842510 18882,6917.873000000001,95.437,540.8919999999998,538.5840000000002,0.0
53263.0,STARLINK-4130,PAYLOAD,2022-11-20 19:47:41,15.08841735,0.0001789,53.2166,202.9531,54.167,305.9489,0.0001303,1.786e-05,0.0,0 STARLINK-4130,1 53263U 22086X   22324.82479122  .00001786  00000-0  13030-3 0  9997,2 53263  53.2166 202.9531 0001789  54.1670 305.9489 15.08841735 19172,6917.875,95.437,540.9780000000002,538.502,0.0
53263.0,STARLINK-4130,PAYLOAD,2022-11-21 11:41:33,15.08843201,0.0001859,53.2162,199.9802,55.4053,304.7115,7.0649e-05,8.37e-06,0.0,0 STARLINK-4130,1 53263U 22086X   22325.48718988  .00000837  00000-0  70649-4 0  9992,2 53263  53.2162 199.9802 0001859  55.4053 304.7115 15.08843201 19275,6917.871,95.437,541.0219999999998,538.45,0.0
53263.0,STARLINK-4130,PAYLOAD,2022-11-21 18:03:06,15.08829767,0.0001719,53.2173,198.7919,49.8221,310.2921,2.8426e-05,1.64e-06,0.0,0 STARLINK-4130,1 53263U 22086X   22325.75215990  .00000164  00000-0  28426-4 0  9996,2 53263  53.2173 198.7919 0001719  49.8221 310.2921 15.08829767 19135,6917.9119999999975,95.438,540.966,538.587,0.0
53263.0,STARLINK-4130,PAYLOAD,2022-11-21 19:38:29,15.08831643,0.0001730999999999,53.217,198.4931,53.6335,306.4817,-5.7513e-06,-3.8e-06,0.0,0 STARLINK-4130,1 53263U 22086X   22325.81839982 -.00000380  00000-0 -57513-5 0  9998,2 53263  53.2170 198.4931 0001731  53.6335 306.4817 15.08831643 19324,6917.906,95.438,540.9680000000002,538.573,0.0
53263.0,STARLINK-4130,PAYLOAD,2022-11-21 21:13:52,15.08831906,0.0001740999999999,53.2169,198.1957,53.6923,306.423,-6.4239e-06,-3.9e-06,0.0,0 STARLINK-4130,1 53263U 22086X   22325.88463976 -.00000390  00000-0 -64239-5 0  9995,2 53263  53.2169 198.1957 0001741  53.6923 306.4230 15.08831906 19333,6917.905,95.438,540.975,538.566,0.0
53263.0,STARLINK-4130,PAYLOAD,2022-11-22 21:04:39,15.08836922,0.0001783,53.2171,193.7362,51.6473,308.4679,9.3884e-05,1.206e-05,0.0,0 STARLINK-4130,1 53263U 22086X   22326.87823599  .00001206  00000-0  93884-4 0  9998,2 53263  53.2171 193.7362 0001783  51.6473 308.4679 15.08836922 19489,6917.89,95.438,540.988,538.521,0.0
53263.0,STARLINK-4130,PAYLOAD,2022-11-22 22:40:02,15.088377800000002,0.0001719,53.217,193.4382,53.2521,306.8629,9.2924e-05,1.191e-05,0.0,0 STARLINK-4130,1 53263U 22086X   22326.94447521  .00001191  00000-0  92924-4 0  9990,2 53263  53.2170 193.4382 0001719  53.2521 306.8629 15.08837780 19310,6917.887,95.438,540.941,538.563,0.0
53263.0,STARLINK-4130,PAYLOAD,2022-11-23 08:12:21,15.08843557,0.0001703,53.2168,191.6546,56.3637,303.7518,0.00011326,1.515e-05,0.0,0 STARLINK-4130,1 53263U 22086X   22327.34191178  .00001515  00000-0  11326-3 0  9995,2 53263  53.2168 191.6546 0001703  56.3637 303.7518 15.08843557 19552,6917.87,95.437,540.913,538.556,0.0
53263.0,STARLINK-4130,PAYLOAD,2022-11-23 19:20:03,15.08838977,0.0001665999999999,53.2168,189.5723,57.0347,303.0805,-5.9846e-06,-3.83e-06,0.0,0 STARLINK-4130,1 53263U 22086X   22327.80559758 -.00000383  00000-0 -59846-5 0  9993,2 53263  53.2168 189.5723 0001666  57.0347 303.0805 15.08838977 19629,6917.884,95.438,540.901,538.596,0.0
53263.0,STARLINK-4130,PAYLOAD,2022-11-24 00:06:13,15.08829297,0.00017,53.2169,188.6801,55.8479,304.2674,8.0875e-05,9.99e-06,0.0,0 STARLINK-4130,1 53263U 22086X   22328.00432329  .00000999  00000-0  80875-4 0  9996,2 53263  53.2169 188.6801 0001700  55.8479 304.2674 15.08829297 19473,6917.913000000001,95.438,540.9540000000002,538.602,0.0
53263.0,STARLINK-4130,PAYLOAD,2022-11-24 08:03:09,15.08835271,0.0001732,53.2172,187.1929,56.0025,304.1131,7.549600000000001e-05,9.14e-06,0.0,0 STARLINK-4130,1 53263U 22086X   22328.33552162  .00000914  00000-0  75496-4 0  9990,2 53263  53.2172 187.1929 0001732  56.0025 304.1131 15.08835271 19709,6917.895,95.438,540.9580000000002,538.562,0.0
53263.0,STARLINK-4130,PAYLOAD,2022-11-24 20:46:13,15.08841582,0.0001751999999999,53.217,184.8144,55.9594,304.1564,4.0871e-05,3.62e-06,0.0,0 STARLINK-4130,1 53263U 22086X   22328.86543893  .00000362  00000-0  40871-4 0  9995,2 53263  53.2170 184.8144 0001752  55.9594 304.1564 15.08841582 19602,6917.876,95.437,540.953,538.529,0.0
53263.0,STARLINK-4130,PAYLOAD,2022-11-25 07:53:55,15.08845251,0.0001764999999999,53.2171,182.7331,55.8423,304.2736,4.1649e-05,3.75e-06,0.0,0 STARLINK-4130,1 53263U 22086X   22329.32911539  .00000375  00000-0  41649-4 0  9991,2 53263  53.2171 182.7331 0001765  55.8423 304.2736 15.08845251 19858,6917.864000000001,95.437,540.95,538.508,0.0
53263.0,STARLINK-4130,PAYLOAD,2022-11-25 20:37:00,15.08846916,0.0001759,53.2179,180.3543,54.805,305.3107,0.00013044,1.789e-05,0.0,0 STARLINK-4130,1 53263U 22086X   22329.85903182  .00001789  00000-0  13044-3 0  9991,2 53263  53.2179 180.3543 0001759  54.8050 305.3107 15.08846916 19935,6917.859,95.437,540.941,538.507,0.0
53263.0,STARLINK-4130,PAYLOAD,2022-11-26 17:17:01,15.08840626,0.0001796,53.2182,176.4891,54.4815,305.6345,6.4618e-05,7.400000000000001e-06,0.0,0 STARLINK-4130,1 53263U 22086X   22330.72015642  .00000740  00000-0  64618-4 0  9994,2 53263  53.2182 176.4891 0001796  54.4815 305.6345 15.08840626 20062,6917.878000000002,95.438,540.986,538.501,0.0
53263.0,STARLINK-4130,PAYLOAD,2022-11-26 20:27:47,15.088419,0.0001792,53.2184,175.8946,53.0809,307.0347,2.6887e-05,1.4e-06,0.0,0 STARLINK-4130,1 53263U 22086X   22330.85263645  .00000140  00000-0  26887-4 0  9996,2 53263  53.2184 175.8946 0001792  53.0809 307.0347 15.08841900 19907,6917.875,95.437,540.979,538.5,0.0
53263.0,STARLINK-4130,PAYLOAD,2022-11-27 20:18:35,15.08836188,0.0001803,53.2182,171.4339,54.5127,305.6033,-4.5437e-05,-1.011e-05,0.0,0 STARLINK-4130,1 53263U 22086X   22331.84624130 -.00001011  00000-0 -45437-4 0  9998,2 53263  53.2182 171.4339 0001803  54.5127 305.6033 15.08836188 20051,6917.892,95.438,541.004,538.51,0.0
53263.0,STARLINK-4130,PAYLOAD,2022-11-28 13:47:50,15.08828792,0.0001749,53.2185,168.1629,51.9792,308.1358,-1.9631e-05,-6e-06,0.0,0 STARLINK-4130,1 53263U 22086X   22332.57488843 -.00000600  00000-0 -19631-4 0  9998,2 53263  53.2185 168.1629 0001749  51.9792 308.1358 15.08828792 20169,6917.915,95.438,540.99,538.57,0.0
53263.0,STARLINK-4130,PAYLOAD,2022-11-29 05:41:41,15.08832559,0.0001768,53.2183,165.1897,52.8853,307.2301,2.124e-05,5e-07,0.0,0 STARLINK-4130,1 53263U 22086X   22333.23728843  .00000050  00000-0  21240-4 0  9995,2 53263  53.2183 165.1897 0001768  52.8853 307.2301 15.08832559 20445,6917.903,95.438,540.991,538.545,0.0
53263.0,STARLINK-4130,PAYLOAD,2022-11-29 20:00:10,15.08830169,0.0001781999999999,53.2183,162.5136,53.9716,306.1441,0.00010086,1.317e-05,0.0,0 STARLINK-4130,1 53263U 22086X   22333.83345106  .00001317  00000-0  10086-3 0  9990,2 53263  53.2183 162.5136 0001782  53.9716 306.1441 15.08830169 20536,6917.91,95.438,541.008,538.543,0.0
